{"type": "FeatureCollection", "features": [ {"type": "Feature", "properties": {"norad_id": 52912, "name": "GAOFEN-12 03", "group": "resource", "lat": -56.61182257050295, "lon": -98.94766847137033, "alt_km": 637.7795968577802, "timestamp": "2025-12-27T23:26:37.011449+00:00", "meta": {"OBJECT_NAME": "GAOFEN-12 03", "OBJECT_ID": "2022-069A", "EPOCH": "2025-12-27T12:20:30.450048", "MEAN_MOTION": 14.79644002, "ECCENTRICITY": 0.0001677, "INCLINATION": 97.8474, "RA_OF_ASC_NODE": 248.5217, "ARG_OF_PERICENTER": 46.4457, "MEAN_ANOMALY": 313.6894, "EPHEMERIS_TYPE": 0, "CLASSIFICATION_TYPE": "U", "NORAD_CAT_ID": 52912, "ELEMENT_SET_NO": 999, "REV_AT_EPOCH": 18922, "BSTAR": 0.00017896, "MEAN_MOTION_DOT": 1.291e-05, "MEAN_MOTION_DDOT": 0}, "tle": {"line1": "1 52912U 22069A   25361.51424132  .00001291  00000+0  17896-3 0  9993", "line2": "2 52912  97.8474 248.5217 0001677  46.4457 313.6894 14.79644002189223"}}, "geometry": {"type": "Point", "coordinates": [-98.94766847137033, -56.61182257050295]}}, {"type": "Feature", "properties": {"norad_id": 54754, "name": "SWOT", "group": "resource", "lat": -68.42333739748823, "lon": 120.19030645523556, "alt_km": 900.6120189928006, "timestamp": "2025-12-27T23:26:37.011459+00:00", "meta": {"OBJECT_NAME": "SWOT", "OBJECT_ID": "2022-173A", "EPOCH": "2025-12-27T11:57:12.848832", "MEAN_MOTION": 14.00169206, "ECCENTRICITY": 4.3e-05, "INCLINATION": 77.6106, "RA_OF_ASC_NODE": 267.0683, "ARG_OF_PERICENTER": 79.3734, "MEAN_ANOMALY": 280.7466, "EPHEMERIS_TYPE": 0, "CLASSIFICATION_TYPE": "U", "NORAD_CAT_ID": 54754, "ELEMENT_SET_NO": 999, "REV_AT_EPOCH": 15512, "BSTAR": 9.0778e-05, "MEAN_MOTION_DOT": 1.31e-06, "MEAN_MOTION_DDOT": 0}, "tle": {"line1": "1 54754U 22173A   25361.49806538  .00000131  00000+0  90778-4 0  9999", "line2": "2 54754  77.6106 267.0683 0000430  79.3734 280.7466 14.00169206155122"}}, "geometry": {"type": "Point", "coordinates": [120.19030645523556, -68.42333739748823]}}, {"type": "Feature", "properties": {"norad_id": 57654, "name": "GAOFEN-12 04", "group": "resource", "lat": 61.381087271460565, "lon": 112.27126267003678, "alt_km": 623.5054930836177, "timestamp": "2025-12-27T23:26:37.011469+00:00", "meta": {"OBJECT_NAME": "GAOFEN-12 04", "OBJECT_ID": "2023-123A", "EPOCH": "2025-12-27T13:10:37.368768", "MEAN_MOTION": 14.79743643, "ECCENTRICITY": 0.0001188, "INCLINATION": 97.9129, "RA_OF_ASC_NODE": 277.0824, "ARG_OF_PERICENTER": 81.2849, "MEAN_ANOMALY": 278.8497, "EPHEMERIS_TYPE": 0, "CLASSIFICATION_TYPE": "U", "NORAD_CAT_ID": 57654, "ELEMENT_SET_NO": 999, "REV_AT_EPOCH": 12724, "BSTAR": 0.00022149, "MEAN_MOTION_DOT": 1.614e-05, "MEAN_MOTION_DDOT": 0}, "tle": {"line1": "1 57654U 23123A   25361.54904362  .00001614  00000+0  22149-3 0  9990", "line2": "2 57654  97.9129 277.0824 0001188  81.2849 278.8497 14.79743643127245"}}, "geometry": {"type": "Point", "coordinates": [112.27126267003678, 61.381087271460565]}}, {"type": "Feature", "properties": {"norad_id": 59065, "name": "PARS 1", "group": "resource", "lat": -79.24664765929839, "lon": 16.905007178964816, "alt_km": 451.79255470993485, "timestamp": "2025-12-27T23:26:37.011479+00:00", "meta": {"OBJECT_NAME": "PARS 1", "OBJECT_ID": "2024-039Q", "EPOCH": "2025-12-27T12:53:34.636416", "MEAN_MOTION": 15.41320165, "ECCENTRICITY": 0.0011217, "INCLINATION": 97.4654, "RA_OF_ASC_NODE": 332.7885, "ARG_OF_PERICENTER": 26.5923, "MEAN_ANOMALY": 333.5897, "EPHEMERIS_TYPE": 0, "CLASSIFICATION_TYPE": "U", "NORAD_CAT_ID": 59065, "ELEMENT_SET_NO": 999, "REV_AT_EPOCH": 10216, "BSTAR": 0.00033823, "MEAN_MOTION_DOT": 0.00014046, "MEAN_MOTION_DDOT": 0}, "tle": {"line1": "1 59065U 24039Q   25361.53720644  .00014046  00000+0  33823-3 0  9997", "line2": "2 59065  97.4654 332.7885 0011217  26.5923 333.5897 15.41320165102163"}}, "geometry": {"type": "Point", "coordinates": [16.905007178964816, -79.24664765929839]}}, {"type": "Feature", "properties": {"norad_id": 59371, "name": "RESURS-P 4", "group": "resource", "lat": -71.64618870387804, "lon": -29.417686823577377, "alt_km": 477.05153408591195, "timestamp": "2025-12-27T23:26:37.011489+00:00", "meta": {"OBJECT_NAME": "RESURS-P 4", "OBJECT_ID": "2024-061A", "EPOCH": "2025-12-27T12:47:26.407392", "MEAN_MOTION": 15.3221713, "ECCENTRICITY": 8.1e-05, "INCLINATION": 97.2561, "RA_OF_ASC_NODE": 307.5623, "ARG_OF_PERICENTER": 96.0925, "MEAN_ANOMALY": 264.0409, "EPHEMERIS_TYPE": 0, "CLASSIFICATION_TYPE": "U", "NORAD_CAT_ID": 59371, "ELEMENT_SET_NO": 999, "REV_AT_EPOCH": 9747, "BSTAR": 0.00015205, "MEAN_MOTION_DOT": 4.653e-05, "MEAN_MOTION_DDOT": 0}, "tle": {"line1": "1 59371U 24061A   25361.53294453  .00004653  00000+0  15205-3 0  9993", "line2": "2 59371  97.2561 307.5623 0000810  96.0925 264.0409 15.32217130 97470"}}, "geometry": {"type": "Point", "coordinates": [-29.417686823577377, -71.64618870387804]}}, {"type": "Feature", "properties": {"norad_id": 59625, "name": "LEGION 1", "group": "resource", "lat": 17.908112538830366, "lon": 74.03874841211652, "alt_km": 518.2039533889711, "timestamp": "2025-12-27T23:26:37.011500+00:00", "meta": {"OBJECT_NAME": "LEGION 1", "OBJECT_ID": "2024-081A", "EPOCH": "2025-12-27T12:16:47.658144", "MEAN_MOTION": 15.16625986, "ECCENTRICITY": 0.0003697, "INCLINATION": 97.5192, "RA_OF_ASC_NODE": 76.0239, "ARG_OF_PERICENTER": 248.1926, "MEAN_ANOMALY": 111.8913, "EPHEMERIS_TYPE": 0, "CLASSIFICATION_TYPE": "U", "NORAD_CAT_ID": 59625, "ELEMENT_SET_NO": 999, "REV_AT_EPOCH": 9151, "BSTAR": 0.00028449, "MEAN_MOTION_DOT": 5.496e-05, "MEAN_MOTION_DDOT": 0}, "tle": {"line1": "1 59625U 24081A   25361.51166271  .00005496  00000+0  28449-3 0  9991", "line2": "2 59625  97.5192  76.0239 0003697 248.1926 111.8913 15.16625986 91515"}}, "geometry": {"type": "Point", "coordinates": [74.03874841211652, 17.908112538830366]}}, {"type": "Feature", "properties": {"norad_id": 59626, "name": "LEGION 2", "group": "resource", "lat": -18.553115466222113, "lon": -105.96791744309161, "alt_km": 517.6208308088771, "timestamp": "2025-12-27T23:26:37.011509+00:00", "meta": {"OBJECT_NAME": "LEGION 2", "OBJECT_ID": "2024-081B", "EPOCH": "2025-12-27T11:29:10.041216", "MEAN_MOTION": 15.16641196, "ECCENTRICITY": 0.0005852, "INCLINATION": 97.5197, "RA_OF_ASC_NODE": 76.0791, "ARG_OF_PERICENTER": 230.1297, "MEAN_ANOMALY": 129.9422, "EPHEMERIS_TYPE": 0, "CLASSIFICATION_TYPE": "U", "NORAD_CAT_ID": 59626, "ELEMENT_SET_NO": 999, "REV_AT_EPOCH": 9151, "BSTAR": 0.00030136, "MEAN_MOTION_DOT": 5.83e-05, "MEAN_MOTION_DDOT": 0}, "tle": {"line1": "1 59626U 24081B   25361.47858844  .00005830  00000+0  30136-3 0  9999", "line2": "2 59626  97.5197  76.0791 0005852 230.1297 129.9422 15.16641196 91517"}}, "geometry": {"type": "Point", "coordinates": [-105.96791744309161, -18.553115466222113]}}, {"type": "Feature", "properties": {"norad_id": 60182, "name": "ALOS-4 (DAICHI-4)", "group": "resource", "lat": -15.52080485667719, "lon": 98.82202478549902, "alt_km": 636.1303485584849, "timestamp": "2025-12-27T23:26:37.011519+00:00", "meta": {"OBJECT_NAME": "ALOS-4 (DAICHI-4)", "OBJECT_ID": "2024-123A", "EPOCH": "2025-12-26T19:55:12.965952", "MEAN_MOTION": 14.79478137, "ECCENTRICITY": 0.00014191, "INCLINATION": 97.9215, "RA_OF_ASC_NODE": 95.4758, "ARG_OF_PERICENTER": 100.4397, "MEAN_ANOMALY": 259.6975, "EPHEMERIS_TYPE": 0, "CLASSIFICATION_TYPE": "U", "NORAD_CAT_ID": 60182, "ELEMENT_SET_NO": 999, "REV_AT_EPOCH": 8039, "BSTAR": 0.00030778868, "MEAN_MOTION_DOT": 2.248e-05, "MEAN_MOTION_DDOT": 0}, "tle": {"line1": "1 60182U 24123A   25360.83001118  .00002248  00000+0  30779-3 0  9991", "line2": "2 60182  97.9215  95.4758 0001419 100.4397 259.6975 14.79478137 80393"}}, "geometry": {"type": "Point", "coordinates": [98.82202478549902, -15.52080485667719]}}, {"type": "Feature", "properties": {"norad_id": 60452, "name": "LEGION 3", "group": "resource", "lat": -9.483895985980903, "lon": -141.18575058982344, "alt_km": 515.044578988276, "timestamp": "2025-12-27T23:26:37.011529+00:00", "meta": {"OBJECT_NAME": "LEGION 3", "OBJECT_ID": "2024-146A", "EPOCH": "2025-12-27T02:56:33.227520", "MEAN_MOTION": 15.15909819, "ECCENTRICITY": 0.00157761, "INCLINATION": 45.0004, "RA_OF_ASC_NODE": 233.0201, "ARG_OF_PERICENTER": 274.8666, "MEAN_ANOMALY": 85.0412, "EPHEMERIS_TYPE": 0, "CLASSIFICATION_TYPE": "U", "NORAD_CAT_ID": 60452, "ELEMENT_SET_NO": 999, "REV_AT_EPOCH": 7591, "BSTAR": 0.00033039135, "MEAN_MOTION_DOT": 6.195e-05, "MEAN_MOTION_DDOT": 0}, "tle": {"line1": "1 60452U 24146A   25361.12260680  .00006195  00000+0  33039-3 0  9997", "line2": "2 60452  45.0004 233.0201 0015776 274.8666  85.0412 15.15909819 75918"}}, "geometry": {"type": "Point", "coordinates": [-141.18575058982344, -9.483895985980903]}}, {"type": "Feature", "properties": {"norad_id": 60453, "name": "LEGION 4", "group": "resource", "lat": -9.493142735500824, "lon": -49.38470805931193, "alt_km": 515.6796024138021, "timestamp": "2025-12-27T23:26:37.011539+00:00", "meta": {"OBJECT_NAME": "LEGION 4", "OBJECT_ID": "2024-146B", "EPOCH": "2025-12-27T09:16:10.074144", "MEAN_MOTION": 15.15988619, "ECCENTRICITY": 0.0007794, "INCLINATION": 45.0396, "RA_OF_ASC_NODE": 323.4014, "ARG_OF_PERICENTER": 33.7, "MEAN_ANOMALY": 326.4373, "EPHEMERIS_TYPE": 0, "CLASSIFICATION_TYPE": "U", "NORAD_CAT_ID": 60453, "ELEMENT_SET_NO": 999, "REV_AT_EPOCH": 7480, "BSTAR": 0.00034629, "MEAN_MOTION_DOT": 6.507e-05, "MEAN_MOTION_DDOT": 0}, "tle": {"line1": "1 60453U 24146B   25361.38622771  .00006507  00000+0  34629-3 0  9992", "line2": "2 60453  45.0396 323.4014 0007794  33.7000 326.4373 15.15988619 74804"}}, "geometry": {"type": "Point", "coordinates": [-49.38470805931193, -9.493142735500824]}}]}